ARABSAT-7B (BADR-8)     
1 56757U 23075A   25134.31311041  .00000161  00000+0  00000+0 0  9992
2 56757   0.0784  28.1891 0005131 351.7299 351.1109  1.00274291  7122
NVS-01 (IRNSS-1J)       
1 56759U 23076A   25134.40508240 -.00000319  00000+0  00000+0 0  9990
2 56759   3.1496 258.1011 0004298  47.6699 202.0288  1.00271183  7113
NUSANTARA TIGA (SATRIA) 
1 57045U 23086A   25134.57108440 -.00000218  00000+0  00000+0 0  9994
2 57045   0.0380 319.6099 0004375  23.5319 241.0280  1.00271140  5764
H2SAT (HEINRICH HERTZ)  
1 57213U 23093A   25134.52743451  .00000161  00000+0  00000+0 0  9997
2 57213   0.0743 254.1612 0001157 255.8979 298.9092  1.00786875  6911
SYRACUSE 4B             
1 57214U 23093B   25134.39697593 -.00000038  00000+0  00000+0 0  9992
2 57214   0.0155 313.2122 0000320 155.9737 259.5191  1.00269658  2953
JUPITER 3 (ECHOSTAR 24) 
1 57479U 23108A   25133.62112297 -.00000133  00000+0  00000+0 0  9996
2 57479   0.0107 301.8065 0001472 144.9353 273.2885  1.00272760  6644
GALAXY 37 (G-37)        
1 57493U 23112A   25134.45461535  .00000064  00000+0  00000+0 0  9993
2 57493   0.0126 346.3761 0002097  69.5846 213.1584  1.00272892  6545
LUDI TANCE-4 01A        
1 57624U 23120A   25133.70808914 -.00000160  00000+0  00000+0 0  9999
2 57624  15.4116 203.7850 0002418 174.9324 197.5123  1.00269028  6545
TJS-10                  
1 58204U 23169A   25134.73188806  .00000019  00000+0  00000+0 0  9994
2 58204   1.5150  85.3088 0001680 202.1446  21.7430  1.00275319  5672
ZHONGXING-6E            
1 58253U 23172A   25134.47372443 -.00000345  00000+0  00000+0 0  9998
2 58253   0.0163  28.1784 0002403 303.0929 187.2297  1.00269727  5667
YAOGAN-41               
1 58582U 23197A   25134.58308660 -.00000348  00000+0  00000+0 0  9995
2 58582   3.9040 308.8452 0016194 174.1858  82.6378  1.00267025  5328
OVZON-3                 
1 58698U 24003A   25134.46260376  .00000067  00000+0  00000+0 0  9995
2 58698   0.0152 258.0591 0000274 249.5962 311.0458  1.00272569  3441
INSAT-3DS               
1 58990U 24033A   25134.46703465 -.00000140  00000+0  00000+0 0  9997
2 58990   0.0554 265.1393 0001483 155.1266  62.4120  1.00271449 43075
MERAH PUTIH 2           
1 58995U 24035A   25134.47320316 -.00000342  00000+0  00000+0 0  9999
2 58995   0.0194 296.8678 0001708 119.8813  99.0264  1.00270762  4598
TJS-11                  
1 59020U 24037A   25134.77645514 -.00000355  00000+0  00000+0 0  9998
2 59020   4.7785 323.0972 0003820 119.3807 190.1287  1.00274725  4614
HULIANWAN GAOGUI-01 (H*)
1 59069U 24040A   25134.54628060  .00000172  00000+0  00000+0 0  9993
2 59069   0.0261 332.9506 0004993  35.1961  94.7082  1.00271191  3339
EUTELSAT 36D            
1 59346U 24059A   25134.24367803  .00000172  00000+0  00000+0 0  9993
2 59346   0.0180 295.0989 0000226 151.7032 269.0168  1.00272168  4147
PAKSAT-MM1              
1 59915U 24104A   25134.54628060  .00000170  00000+0  00000+0 0  9992
2 59915   0.0141 255.5602 0002721 155.8150  56.0376  1.00273408  3532
ASTRA 1P (SES-24)       
1 60086U 24115A   25134.31180720  .00000136  00000+0  00000+0 0  9998
2 60086   0.0707 322.5659 0003232  37.3594   3.8378  1.00270964  3190
GOES 19                 
1 60133U 24119A   25134.33655718 -.00000231  00000+0  00000+0 0  9998
2 60133   0.0605 101.3777 0000591 359.3002 177.6008  1.00270159  2960
ZHONGXING-3A            
1 60179U 24122A   25134.47094427 -.00000297  00000+0  00000+0 0  9993
2 60179   0.0317  39.4446 0001453 149.3887 314.7476  1.00269872  3313
TURKSAT 6A              
1 60233U 24127A   25134.54628060  .00000162  00000+0  00000+0 0  9993
2 60233   0.0485 138.8769 0000816 336.4657 355.8763  1.00274212  3025
HULIANWAN GAOGUI-02 (H*)
1 60327U 24135A   25134.57802712 -.00000157  00000+0  00000+0 0  9992
2 60327   0.0049 200.8578 0001001 203.4362 189.5181  1.00270387  3504
ZHONGXING-4A            
1 60606U 24151A   25134.58308660 -.00000346  00000+0  00000+0 0  9994
2 60606   2.3438 275.3390 0001973 145.3987 139.9502  1.00268598  2758
HULIANWAN GAOGUI-03 (H*)
1 61503U 24181A   25134.57614155 -.00000224  00000+0  00000+0 0  9997
2 61503   0.0302 162.1910 0001137 223.9934 336.6326  1.00273747  2828
DSN-3 (KIRAMEKI-3)      
1 61733U 24198A   25134.47937166 -.00000234  00000+0  00000+0 0  9990
2 61733   0.0677  97.0038 0000860 317.4846 134.6095  1.00272019  1928
KOREASAT 6A             
1 61910U 24206A   25134.47381132 -.00000346  00000+0  00000+0 0  9997
2 61910   0.0132 256.3877 0001477 154.7018 107.9589  1.00271782  1848
OPTUS-X (ADS-01)        
1 62006U 24212A   25134.46972794 -.00000257  00000+0  00000+0 0  9991
2 62006   0.0220 278.3580 0000827 206.3678  12.2628  1.00273735  1765
GSAT-N2 (GSAT-20)       
1 62028U 24214A   25134.46425448 -.00000003  00000+0  00000+0 0  9995
2 62028   0.0015  91.7925 0002601 317.2376  58.5018  1.00272596  1906
SXM-9                   
1 62259U 24234A   25134.43384634 -.00000188  00000+0  00000+0 0  9995
2 62259   0.0163 324.9742 0004490 354.9306 343.5586  1.00271323  1581
TJS-12                  
1 62374U 24246A   25134.40847073 -.00000216  00000+0  00000+0 0  9996
2 62374   1.6324 285.2623 0002151 105.9831 134.6635  1.00268483  1566
SHIJIAN-25 (SJ-25)      
1 62485U 25002A   25134.61734515 -.00000357  00000+0  00000+0 0  9995
2 62485  10.4361  42.7670 0061405 183.3675 348.6885  1.00263210  1364
TJS-14                  
1 62804U 25017A   25134.24020281  .00000132  00000+0  00000+0 0  9993
2 62804   1.7529 285.0912 0001205 181.7234 230.2590  1.00273478  1270
QZS-6 (MICHIBIKI-6)     
1 62876U 25023A   25134.46877226 -.00000217  00000+0  00000+0 0  9997
2 62876   0.0526  25.2207 0001985  29.3458  77.1598  1.00270059   962
ZHONGXING-10R           
1 63075U 25036A   25134.58308660 -.00000335  00000+0  00000+0 0  9998
2 63075   0.0135 259.0910 0001440 160.7744 148.6570  1.00272915   936
TJS-15                  
1 63157U 25045A   25134.76995862 -.00000216  00000+0  00000+0 0  9993
2 63157   0.1640  94.6498 0002639  63.5068  82.0984  1.00274326   773
TIANLIAN 2-04           
1 63361U 25062A   25134.46660025 -.00000121  00000+0  00000+0 0  9991
2 63361   5.3981 279.8598 0030381   1.2035 199.4034  1.00270052   604
TJS-16                  
1 63397U 25064A   25134.75163838 -.00000162  00000+0  00000+0 0  9999
2 63397   0.0870  54.0728 0001807  55.3687 186.3646  1.00274360   682
TIANLIAN 2-05           
1 63662U 25084A   25134.08856320  .00000138  00000+0  00000+0 0  9999
2 63662   5.4612 284.2973 0002045 154.7455 205.2418  1.00270160   380
